CCSDS_OMM_VERS = 2.0
CREATION_DATE  = 
ORIGINATOR     = 

OBJECT_NAME    = CZ-2D R/B
OBJECT_ID      = 2025-222C
CENTER_NAME    = EARTH
REF_FRAME      = TEME
TIME_SYSTEM    = UTC
MEAN_ELEMENT_THEORY = SGP/SGP4

EPOCH          = 2025-10-27T04:59:01.495680
MEAN_MOTION    = 14.99322272
ECCENTRICITY   = .00565913
INCLINATION    = 34.9022
RA_OF_ASC_NODE = 218.1253
ARG_OF_PERICENTER = 217.7856
MEAN_ANOMALY   = 141.8868

EPHEMERIS_TYPE = 0
CLASSIFICATION_TYPE = U
NORAD_CAT_ID   = 65853
ELEMENT_SET_NO = 999
REV_AT_EPOCH   = 422
BSTAR          = .22302943E-3
MEAN_MOTION_DOT = .285E-4
MEAN_MOTION_DDOT = 0

CCSDS_OMM_VERS = 2.0
CREATION_DATE  = 
ORIGINATOR     = 

OBJECT_NAME    = STARLINK-35208
OBJECT_ID      = 2025-223A
CENTER_NAME    = EARTH
REF_FRAME      = TEME
TIME_SYSTEM    = UTC
MEAN_ELEMENT_THEORY = SGP/SGP4

EPOCH          = 2025-10-27T20:00:01.000224
MEAN_MOTION    = 15.39612104
ECCENTRICITY   = .0001086
INCLINATION    = 53.1587
RA_OF_ASC_NODE = 193.9962
ARG_OF_PERICENTER = 96.6668
MEAN_ANOMALY   = 4.1193

EPHEMERIS_TYPE = 0
CLASSIFICATION_TYPE = U
NORAD_CAT_ID   = 65854
ELEMENT_SET_NO = 999
REV_AT_EPOCH   = 511
BSTAR          = .13289E-3
MEAN_MOTION_DOT = .4918E-4
MEAN_MOTION_DDOT = 0

CCSDS_OMM_VERS = 2.0
CREATION_DATE  = 
ORIGINATOR     = 

OBJECT_NAME    = STARLINK-35200
OBJECT_ID      = 2025-223B
CENTER_NAME    = EARTH
REF_FRAME      = TEME
TIME_SYSTEM    = UTC
MEAN_ELEMENT_THEORY = SGP/SGP4

EPOCH          = 2025-10-27T20:37:46.305408
MEAN_MOTION    = 15.49336706
ECCENTRICITY   = .0000908
INCLINATION    = 53.1590
RA_OF_ASC_NODE = 193.6463
ARG_OF_PERICENTER = 95.2995
MEAN_ANOMALY   = 264.8118

EPHEMERIS_TYPE = 0
CLASSIFICATION_TYPE = U
NORAD_CAT_ID   = 65855
ELEMENT_SET_NO = 999
REV_AT_EPOCH   = 383
BSTAR          = .13534E-2
MEAN_MOTION_DOT = .75627E-3
MEAN_MOTION_DDOT = 0

CCSDS_OMM_VERS = 2.0
CREATION_DATE  = 
ORIGINATOR     = 

OBJECT_NAME    = STARLINK-35459
OBJECT_ID      = 2025-223C
CENTER_NAME    = EARTH
REF_FRAME      = TEME
TIME_SYSTEM    = UTC
MEAN_ELEMENT_THEORY = SGP/SGP4

EPOCH          = 2025-10-27T20:00:01.000224
MEAN_MOTION    = 15.39585290
ECCENTRICITY   = .0000991
INCLINATION    = 53.1594
RA_OF_ASC_NODE = 193.8424
ARG_OF_PERICENTER = 117.7346
MEAN_ANOMALY   = 60.3537

EPHEMERIS_TYPE = 0
CLASSIFICATION_TYPE = U
NORAD_CAT_ID   = 65856
ELEMENT_SET_NO = 999
REV_AT_EPOCH   = 511
BSTAR          = .53842E-3
MEAN_MOTION_DOT = .21172E-3
MEAN_MOTION_DDOT = 0

CCSDS_OMM_VERS = 2.0
CREATION_DATE  = 
ORIGINATOR     = 

OBJECT_NAME    = STARLINK-35489
OBJECT_ID      = 2025-223D
CENTER_NAME    = EARTH
REF_FRAME      = TEME
TIME_SYSTEM    = UTC
MEAN_ELEMENT_THEORY = SGP/SGP4

EPOCH          = 2025-10-27T20:36:47.136096
MEAN_MOTION    = 15.49334914
ECCENTRICITY   = .0001086
INCLINATION    = 53.1590
RA_OF_ASC_NODE = 193.6426
ARG_OF_PERICENTER = 99.4728
MEAN_ANOMALY   = 260.6404

EPHEMERIS_TYPE = 0
CLASSIFICATION_TYPE = U
NORAD_CAT_ID   = 65857
ELEMENT_SET_NO = 999
REV_AT_EPOCH   = 383
BSTAR          = .18798E-2
MEAN_MOTION_DOT = .105619E-2
MEAN_MOTION_DDOT = 0

CCSDS_OMM_VERS = 2.0
CREATION_DATE  = 
ORIGINATOR     = 

OBJECT_NAME    = STARLINK-35199
OBJECT_ID      = 2025-223E
CENTER_NAME    = EARTH
REF_FRAME      = TEME
TIME_SYSTEM    = UTC
MEAN_ELEMENT_THEORY = SGP/SGP4

EPOCH          = 2025-10-27T20:00:01.000224
MEAN_MOTION    = 15.45776542
ECCENTRICITY   = .0001421
INCLINATION    = 53.1596
RA_OF_ASC_NODE = 193.7698
ARG_OF_PERICENTER = 95.8297
MEAN_ANOMALY   = 118.6934

EPHEMERIS_TYPE = 0
CLASSIFICATION_TYPE = U
NORAD_CAT_ID   = 65858
ELEMENT_SET_NO = 999
REV_AT_EPOCH   = 511
BSTAR          = -.47324E-1
MEAN_MOTION_DOT = -.2068642E-1
MEAN_MOTION_DDOT = 0

CCSDS_OMM_VERS = 2.0
CREATION_DATE  = 
ORIGINATOR     = 

OBJECT_NAME    = STARLINK-35408
OBJECT_ID      = 2025-223F
CENTER_NAME    = EARTH
REF_FRAME      = TEME
TIME_SYSTEM    = UTC
MEAN_ELEMENT_THEORY = SGP/SGP4

EPOCH          = 2025-10-27T20:00:01.000224
MEAN_MOTION    = 15.39595666
ECCENTRICITY   = .000115
INCLINATION    = 53.1588
RA_OF_ASC_NODE = 193.9444
ARG_OF_PERICENTER = 105.2400
MEAN_ANOMALY   = 21.2875

EPHEMERIS_TYPE = 0
CLASSIFICATION_TYPE = U
NORAD_CAT_ID   = 65859
ELEMENT_SET_NO = 999
REV_AT_EPOCH   = 511
BSTAR          = .61395E-3
MEAN_MOTION_DOT = .24216E-3
MEAN_MOTION_DDOT = 0

CCSDS_OMM_VERS = 2.0
CREATION_DATE  = 
ORIGINATOR     = 

OBJECT_NAME    = STARLINK-35303
OBJECT_ID      = 2025-223G
CENTER_NAME    = EARTH
REF_FRAME      = TEME
TIME_SYSTEM    = UTC
MEAN_ELEMENT_THEORY = SGP/SGP4

EPOCH          = 2025-10-27T20:00:01.000224
MEAN_MOTION    = 15.41776047
ECCENTRICITY   = .0001046
INCLINATION    = 53.1594
RA_OF_ASC_NODE = 193.7954
ARG_OF_PERICENTER = 114.4205
MEAN_ANOMALY   = 87.6703

EPHEMERIS_TYPE = 0
CLASSIFICATION_TYPE = U
NORAD_CAT_ID   = 65860
ELEMENT_SET_NO = 999
REV_AT_EPOCH   = 511
BSTAR          = -.57459E-1
MEAN_MOTION_DOT = -.2215343E-1
MEAN_MOTION_DDOT = 0

CCSDS_OMM_VERS = 2.0
CREATION_DATE  = 
ORIGINATOR     = 

OBJECT_NAME    = STARLINK-35258
OBJECT_ID      = 2025-223H
CENTER_NAME    = EARTH
REF_FRAME      = TEME
TIME_SYSTEM    = UTC
MEAN_ELEMENT_THEORY = SGP/SGP4

EPOCH          = 2025-10-27T20:35:47.564160
MEAN_MOTION    = 15.49331656
ECCENTRICITY   = .0000416
INCLINATION    = 53.1587
RA_OF_ASC_NODE = 193.6367
ARG_OF_PERICENTER = 101.9464
MEAN_ANOMALY   = 258.1591

EPHEMERIS_TYPE = 0
CLASSIFICATION_TYPE = U
NORAD_CAT_ID   = 65861
ELEMENT_SET_NO = 999
REV_AT_EPOCH   = 383
BSTAR          = .15994E-2
MEAN_MOTION_DOT = .896E-3
MEAN_MOTION_DDOT = 0

CCSDS_OMM_VERS = 2.0
CREATION_DATE  = 
ORIGINATOR     = 

OBJECT_NAME    = STARLINK-35386
OBJECT_ID      = 2025-223J
CENTER_NAME    = EARTH
REF_FRAME      = TEME
TIME_SYSTEM    = UTC
MEAN_ELEMENT_THEORY = SGP/SGP4

EPOCH          = 2025-10-27T20:34:06.312000
MEAN_MOTION    = 15.48188062
ECCENTRICITY   = .0001211
INCLINATION    = 53.1591
RA_OF_ASC_NODE = 193.6292
ARG_OF_PERICENTER = 48.5056
MEAN_ANOMALY   = 311.6056

EPHEMERIS_TYPE = 0
CLASSIFICATION_TYPE = U
NORAD_CAT_ID   = 65862
ELEMENT_SET_NO = 999
REV_AT_EPOCH   = 383
BSTAR          = -.91056E-2
MEAN_MOTION_DOT = -.459696E-2
MEAN_MOTION_DDOT = 0

CCSDS_OMM_VERS = 2.0
CREATION_DATE  = 
ORIGINATOR     = 

OBJECT_NAME    = STARLINK-35469
OBJECT_ID      = 2025-223K
CENTER_NAME    = EARTH
REF_FRAME      = TEME
TIME_SYSTEM    = UTC
MEAN_ELEMENT_THEORY = SGP/SGP4

EPOCH          = 2025-10-27T20:00:01.000224
MEAN_MOTION    = 15.39599599
ECCENTRICITY   = .000129
INCLINATION    = 53.1587
RA_OF_ASC_NODE = 193.8924
ARG_OF_PERICENTER = 95.4423
MEAN_ANOMALY   = 56.8734

EPHEMERIS_TYPE = 0
CLASSIFICATION_TYPE = U
NORAD_CAT_ID   = 65863
ELEMENT_SET_NO = 999
REV_AT_EPOCH   = 511
BSTAR          = .22433E-3
MEAN_MOTION_DOT = .8578E-4
MEAN_MOTION_DDOT = 0

CCSDS_OMM_VERS = 2.0
CREATION_DATE  = 
ORIGINATOR     = 

OBJECT_NAME    = STARLINK-35471
OBJECT_ID      = 2025-223L
CENTER_NAME    = EARTH
REF_FRAME      = TEME
TIME_SYSTEM    = UTC
MEAN_ELEMENT_THEORY = SGP/SGP4

EPOCH          = 2025-10-27T19:00:25.763040
MEAN_MOTION    = 15.49341065
ECCENTRICITY   = .0001306
INCLINATION    = 53.1584
RA_OF_ASC_NODE = 193.9336
ARG_OF_PERICENTER = 94.1442
MEAN_ANOMALY   = 265.9716

EPHEMERIS_TYPE = 0
CLASSIFICATION_TYPE = U
NORAD_CAT_ID   = 65864
ELEMENT_SET_NO = 999
REV_AT_EPOCH   = 382
BSTAR          = .16274E-2
MEAN_MOTION_DOT = .91227E-3
MEAN_MOTION_DDOT = 0

CCSDS_OMM_VERS = 2.0
CREATION_DATE  = 
ORIGINATOR     = 

OBJECT_NAME    = STARLINK-35475
OBJECT_ID      = 2025-223M
CENTER_NAME    = EARTH
REF_FRAME      = TEME
TIME_SYSTEM    = UTC
MEAN_ELEMENT_THEORY = SGP/SGP4

EPOCH          = 2025-10-27T20:32:49.771104
MEAN_MOTION    = 15.49336866
ECCENTRICITY   = .0001278
INCLINATION    = 53.1592
RA_OF_ASC_NODE = 193.6227
ARG_OF_PERICENTER = 86.5531
MEAN_ANOMALY   = 273.5625

EPHEMERIS_TYPE = 0
CLASSIFICATION_TYPE = U
NORAD_CAT_ID   = 65865
ELEMENT_SET_NO = 999
REV_AT_EPOCH   = 383
BSTAR          = .18704E-2
MEAN_MOTION_DOT = .105091E-2
MEAN_MOTION_DDOT = 0

CCSDS_OMM_VERS = 2.0
CREATION_DATE  = 
ORIGINATOR     = 

OBJECT_NAME    = STARLINK-35312
OBJECT_ID      = 2025-223N
CENTER_NAME    = EARTH
REF_FRAME      = TEME
TIME_SYSTEM    = UTC
MEAN_ELEMENT_THEORY = SGP/SGP4

EPOCH          = 2025-10-27T20:32:19.220064
MEAN_MOTION    = 15.49310956
ECCENTRICITY   = .0002266
INCLINATION    = 53.1587
RA_OF_ASC_NODE = 193.6202
ARG_OF_PERICENTER = 125.9158
MEAN_ANOMALY   = 234.2062

EPHEMERIS_TYPE = 0
CLASSIFICATION_TYPE = U
NORAD_CAT_ID   = 65866
ELEMENT_SET_NO = 999
REV_AT_EPOCH   = 383
BSTAR          = .13868E-2
MEAN_MOTION_DOT = .77457E-3
MEAN_MOTION_DDOT = 0

CCSDS_OMM_VERS = 2.0
CREATION_DATE  = 
ORIGINATOR     = 

OBJECT_NAME    = STARLINK-35456
OBJECT_ID      = 2025-223P
CENTER_NAME    = EARTH
REF_FRAME      = TEME
TIME_SYSTEM    = UTC
MEAN_ELEMENT_THEORY = SGP/SGP4

EPOCH          = 2025-10-27T20:31:51.197088
MEAN_MOTION    = 15.49302532
ECCENTRICITY   = .0001492
INCLINATION    = 53.1587
RA_OF_ASC_NODE = 193.6177
ARG_OF_PERICENTER = 107.8490
MEAN_ANOMALY   = 252.2682

EPHEMERIS_TYPE = 0
CLASSIFICATION_TYPE = U
NORAD_CAT_ID   = 65867
ELEMENT_SET_NO = 999
REV_AT_EPOCH   = 383
BSTAR          = .16997E-2
MEAN_MOTION_DOT = .95218E-3
MEAN_MOTION_DDOT = 0

